{"type": "FeatureCollection", "features": [ {"type": "Feature", "properties": {"norad_id": 54234, "name": "NOAA 21 (JPSS-2)", "group": "weather", "lat": 5.7040038486247875, "lon": -78.24585541932899, "alt_km": 827.7392516874716, "timestamp": "2025-12-12T07:43:20.146086+00:00", "meta": {"OBJECT_NAME": "NOAA 21 (JPSS-2)", "OBJECT_ID": "2022-150A", "EPOCH": "2025-12-11T23:14:12.718464", "MEAN_MOTION": 14.19523982, "ECCENTRICITY": 0.0002247, "INCLINATION": 98.7461, "RA_OF_ASC_NODE": 282.2861, "ARG_OF_PERICENTER": 39.6376, "MEAN_ANOMALY": 320.4964, "EPHEMERIS_TYPE": 0, "CLASSIFICATION_TYPE": "U", "NORAD_CAT_ID": 54234, "ELEMENT_SET_NO": 999, "REV_AT_EPOCH": 15998, "BSTAR": 0.00010311933, "MEAN_MOTION_DOT": 1.73e-06, "MEAN_MOTION_DDOT": 0}, "tle": {"line1": "1 54234U 22150A   25345.96820276  .00000173  00000+0  10312-3 0  9997", "line2": "2 54234  98.7461 282.2861 0002247  39.6376 320.4964 14.19523982159987"}}, "geometry": {"type": "Point", "coordinates": [-78.24585541932899, 5.7040038486247875]}}, {"type": "Feature", "properties": {"norad_id": 54743, "name": "METEOSAT-12 (MTG-I1)", "group": "weather", "lat": 0.06771715157021678, "lon": -163.16852089893914, "alt_km": 35783.55336492196, "timestamp": "2025-12-12T07:43:20.146101+00:00", "meta": {"OBJECT_NAME": "METEOSAT-12 (MTG-I1)", "OBJECT_ID": "2022-170C", "EPOCH": "2025-12-11T22:04:10.886016", "MEAN_MOTION": 1.0026878, "ECCENTRICITY": 0.00017645, "INCLINATION": 0.6862, "RA_OF_ASC_NODE": 23.4836, "ARG_OF_PERICENTER": 236.7439, "MEAN_ANOMALY": 151.4457, "EPHEMERIS_TYPE": 0, "CLASSIFICATION_TYPE": "U", "NORAD_CAT_ID": 54743, "ELEMENT_SET_NO": 999, "REV_AT_EPOCH": 1110, "BSTAR": 0, "MEAN_MOTION_DOT": 1e-08, "MEAN_MOTION_DDOT": 0}, "tle": {"line1": "1 54743U 22170C   25345.91957044  .00000001  00000+0  00000+0 0  9992", "line2": "2 54743   0.6862  23.4836 0001764 236.7439 151.4457  1.00268780 11107"}}, "geometry": {"type": "Point", "coordinates": [-163.16852089893914, 0.06771715157021678]}}, {"type": "Feature", "properties": {"norad_id": 55973, "name": "TIANMU-1 03", "group": "weather", "lat": 69.30872626611655, "lon": -10.59195970123531, "alt_km": 434.6753711664105, "timestamp": "2025-12-12T07:43:20.146112+00:00", "meta": {"OBJECT_NAME": "TIANMU-1 03", "OBJECT_ID": "2023-039A", "EPOCH": "2025-12-12T01:00:56.866176", "MEAN_MOTION": 15.40891005, "ECCENTRICITY": 0.00044247, "INCLINATION": 97.511, "RA_OF_ASC_NODE": 148.6743, "ARG_OF_PERICENTER": 63.4826, "MEAN_ANOMALY": 296.6874, "EPHEMERIS_TYPE": 0, "CLASSIFICATION_TYPE": "U", "NORAD_CAT_ID": 55973, "ELEMENT_SET_NO": 999, "REV_AT_EPOCH": 15195, "BSTAR": 0.00049116115, "MEAN_MOTION_DOT": 0.00020126, "MEAN_MOTION_DDOT": 0}, "tle": {"line1": "1 55973U 23039A   25346.04232484  .00020126  00000+0  49116-3 0  9997", "line2": "2 55973  97.5110 148.6743 0004424  63.4826 296.6874 15.40891005151956"}}, "geometry": {"type": "Point", "coordinates": [-10.59195970123531, 69.30872626611655]}}, {"type": "Feature", "properties": {"norad_id": 55974, "name": "TIANMU-1 04", "group": "weather", "lat": -42.37500756740589, "lon": -38.75460092549475, "alt_km": 452.5108081230219, "timestamp": "2025-12-12T07:43:20.146123+00:00", "meta": {"OBJECT_NAME": "TIANMU-1 04", "OBJECT_ID": "2023-039B", "EPOCH": "2025-12-12T00:31:34.292352", "MEAN_MOTION": 15.41225831, "ECCENTRICITY": 0.0005088, "INCLINATION": 97.5042, "RA_OF_ASC_NODE": 147.8447, "ARG_OF_PERICENTER": 58.3326, "MEAN_ANOMALY": 301.8416, "EPHEMERIS_TYPE": 0, "CLASSIFICATION_TYPE": "U", "NORAD_CAT_ID": 55974, "ELEMENT_SET_NO": 999, "REV_AT_EPOCH": 15195, "BSTAR": 0.00049574387, "MEAN_MOTION_DOT": 0.00020545, "MEAN_MOTION_DDOT": 0}, "tle": {"line1": "1 55974U 23039B   25346.02192468  .00020545  00000+0  49574-3 0  9996", "line2": "2 55974  97.5042 147.8447 0005088  58.3326 301.8416 15.41225831151958"}}, "geometry": {"type": "Point", "coordinates": [-38.75460092549475, -42.37500756740589]}}, {"type": "Feature", "properties": {"norad_id": 55975, "name": "TIANMU-1 05", "group": "weather", "lat": -73.46105930195365, "lon": -57.72617689625064, "alt_km": 453.8732180220077, "timestamp": "2025-12-12T07:43:20.146133+00:00", "meta": {"OBJECT_NAME": "TIANMU-1 05", "OBJECT_ID": "2023-039C", "EPOCH": "2025-12-12T00:23:01.866048", "MEAN_MOTION": 15.40846811, "ECCENTRICITY": 0.00043673, "INCLINATION": 97.5088, "RA_OF_ASC_NODE": 148.331, "ARG_OF_PERICENTER": 80.6013, "MEAN_ANOMALY": 279.5726, "EPHEMERIS_TYPE": 0, "CLASSIFICATION_TYPE": "U", "NORAD_CAT_ID": 55975, "ELEMENT_SET_NO": 999, "REV_AT_EPOCH": 15193, "BSTAR": 0.00049077067, "MEAN_MOTION_DOT": 0.0002008, "MEAN_MOTION_DDOT": 0}, "tle": {"line1": "1 55975U 23039C   25346.01599382  .00020080  00000+0  49077-3 0  9994", "line2": "2 55975  97.5088 148.3310 0004367  80.6013 279.5726 15.40846811151933"}}, "geometry": {"type": "Point", "coordinates": [-57.72617689625064, -73.46105930195365]}}, {"type": "Feature", "properties": {"norad_id": 55976, "name": "TIANMU-1 06", "group": "weather", "lat": -30.43909047725939, "lon": -35.3362822327608, "alt_km": 450.6749850075512, "timestamp": "2025-12-12T07:43:20.146143+00:00", "meta": {"OBJECT_NAME": "TIANMU-1 06", "OBJECT_ID": "2023-039D", "EPOCH": "2025-12-12T00:34:44.285952", "MEAN_MOTION": 15.41278011, "ECCENTRICITY": 0.00046648, "INCLINATION": 97.5099, "RA_OF_ASC_NODE": 148.8037, "ARG_OF_PERICENTER": 75.5375, "MEAN_ANOMALY": 284.6389, "EPHEMERIS_TYPE": 0, "CLASSIFICATION_TYPE": "U", "NORAD_CAT_ID": 55976, "ELEMENT_SET_NO": 999, "REV_AT_EPOCH": 15195, "BSTAR": 0.00049344344, "MEAN_MOTION_DOT": 0.00020483, "MEAN_MOTION_DDOT": 0}, "tle": {"line1": "1 55976U 23039D   25346.02412368  .00020483  00000+0  49344-3 0  9998", "line2": "2 55976  97.5099 148.8037 0004664  75.5375 284.6389 15.41278011151957"}}, "geometry": {"type": "Point", "coordinates": [-35.3362822327608, -30.43909047725939]}}, {"type": "Feature", "properties": {"norad_id": 56232, "name": "FENGYUN 3G", "group": "weather", "lat": -49.92699212208121, "lon": 136.33450907129142, "alt_km": 413.8749361114251, "timestamp": "2025-12-12T07:43:20.146156+00:00", "meta": {"OBJECT_NAME": "FENGYUN 3G", "OBJECT_ID": "2023-055A", "EPOCH": "2025-12-11T22:51:23.409792", "MEAN_MOTION": 15.5357145, "ECCENTRICITY": 0.00092687, "INCLINATION": 49.9934, "RA_OF_ASC_NODE": 231.518, "ARG_OF_PERICENTER": 144.8142, "MEAN_ANOMALY": 215.344, "EPHEMERIS_TYPE": 0, "CLASSIFICATION_TYPE": "U", "NORAD_CAT_ID": 56232, "ELEMENT_SET_NO": 999, "REV_AT_EPOCH": 15090, "BSTAR": 0.00066762334, "MEAN_MOTION_DOT": 0.00043203, "MEAN_MOTION_DDOT": 0}, "tle": {"line1": "1 56232U 23055A   25345.95235428  .00043203  00000+0  66762-3 0  9991", "line2": "2 56232  49.9934 231.5180 0009268 144.8142 215.3440 15.53571450150907"}}, "geometry": {"type": "Point", "coordinates": [136.33450907129142, -49.92699212208121]}}, {"type": "Feature", "properties": {"norad_id": 57166, "name": "METEOR-M2 3", "group": "weather", "lat": -80.34434003404813, "lon": 156.5576227119705, "alt_km": 819.8009628115915, "timestamp": "2025-12-12T07:43:20.146166+00:00", "meta": {"OBJECT_NAME": "METEOR-M2 3", "OBJECT_ID": "2023-091A", "EPOCH": "2025-12-11T23:43:58.518336", "MEAN_MOTION": 14.24025941, "ECCENTRICITY": 0.00039494, "INCLINATION": 98.6379, "RA_OF_ASC_NODE": 39.5413, "ARG_OF_PERICENTER": 10.9809, "MEAN_ANOMALY": 349.1456, "EPHEMERIS_TYPE": 0, "CLASSIFICATION_TYPE": "U", "NORAD_CAT_ID": 57166, "ELEMENT_SET_NO": 999, "REV_AT_EPOCH": 12787, "BSTAR": 2.8647223e-05, "MEAN_MOTION_DOT": 2.2e-07, "MEAN_MOTION_DDOT": 0}, "tle": {"line1": "1 57166U 23091A   25345.98887174  .00000022  00000+0  28647-4 0  9995", "line2": "2 57166  98.6379  39.5413 0003949  10.9809 349.1456 14.24025941127875"}}, "geometry": {"type": "Point", "coordinates": [156.5576227119705, -80.34434003404813]}}, {"type": "Feature", "properties": {"norad_id": 57399, "name": "TIANMU-1 07", "group": "weather", "lat": -62.72128845183677, "lon": 50.55049789899275, "alt_km": 492.0313602768847, "timestamp": "2025-12-12T07:43:20.146177+00:00", "meta": {"OBJECT_NAME": "TIANMU-1 07", "OBJECT_ID": "2023-101A", "EPOCH": "2025-12-12T00:08:32.384832", "MEAN_MOTION": 15.28055169, "ECCENTRICITY": 0.0005627, "INCLINATION": 97.288, "RA_OF_ASC_NODE": 35.8716, "ARG_OF_PERICENTER": 83.553, "MEAN_ANOMALY": 276.635, "EPHEMERIS_TYPE": 0, "CLASSIFICATION_TYPE": "U", "NORAD_CAT_ID": 57399, "ELEMENT_SET_NO": 999, "REV_AT_EPOCH": 13304, "BSTAR": 0.0004090908, "MEAN_MOTION_DOT": 0.00011131, "MEAN_MOTION_DDOT": 0}, "tle": {"line1": "1 57399U 23101A   25346.00593038  .00011131  00000+0  40909-3 0  9999", "line2": "2 57399  97.2880  35.8716 0005627  83.5530 276.6350 15.28055169133045"}}, "geometry": {"type": "Point", "coordinates": [50.55049789899275, -62.72128845183677]}}, {"type": "Feature", "properties": {"norad_id": 57400, "name": "TIANMU-1 08", "group": "weather", "lat": 60.83873182259151, "lon": -130.7643959443365, "alt_km": 471.4751720733284, "timestamp": "2025-12-12T07:43:20.146202+00:00", "meta": {"OBJECT_NAME": "TIANMU-1 08", "OBJECT_ID": "2023-101B", "EPOCH": "2025-12-12T00:55:13.780416", "MEAN_MOTION": 15.28038804, "ECCENTRICITY": 0.00075212, "INCLINATION": 97.2868, "RA_OF_ASC_NODE": 35.7015, "ARG_OF_PERICENTER": 85.8571, "MEAN_ANOMALY": 274.3528, "EPHEMERIS_TYPE": 0, "CLASSIFICATION_TYPE": "U", "NORAD_CAT_ID": 57400, "ELEMENT_SET_NO": 999, "REV_AT_EPOCH": 13304, "BSTAR": 0.0004126256, "MEAN_MOTION_DOT": 0.00011226, "MEAN_MOTION_DDOT": 0}, "tle": {"line1": "1 57400U 23101B   25346.03835394  .00011226  00000+0  41263-3 0  9998", "line2": "2 57400  97.2868  35.7015 0007521  85.8571 274.3528 15.28038804133049"}}, "geometry": {"type": "Point", "coordinates": [-130.7643959443365, 60.83873182259151]}}]}